ORBCOMM FM103           
1 40091U 14040F   25069.51154636  .00001173  00000+0  29020-3 0  9993
2 40091  47.0048 123.7353 0002297 219.2971 140.7748 14.57892199549705
ORBCOMM FM119           
1 41180U 15081B   25069.86214502  .00001194  00000+0  29464-3 0  9991
2 41180  47.0008 300.4661 0001368 312.5166  47.5603 14.57870625491371
ORBCOMM FM105           
1 41181U 15081C   25069.84057282  .00000563  00000+0  20444-3 0  9998
2 41181  47.0017 295.9967 0002028 246.0047 114.0621 14.45076890486522
ORBCOMM FM110           
1 41182U 15081D   25069.58071019  .00001538  00000+0  36856-3 0  9991
2 41182  47.0033  31.8843 0001988  25.2849 334.8134 14.57936196489950
ORBCOMM FM112           
1 41184U 15081F   25069.70145759  .00001482  00000+0  35671-3 0  9992
2 41184  46.9993 300.3884 0001167 280.4675  79.6079 14.57894834491299
